{"type":"FeatureCollection","features":[{"type":"Feature","geometry":{"type":"Polygon","coordinates":[[[-116.7573,32.5655],[-116.1062,32.6184],[-116.1056,32.7263],[-116.103,32.7264],[-116.1033,33.0748],[-116.0812,33.0749],[-116.0849,33.4263],[-116.1977,33.4289],[-117.0309,33.4269],[-117.0309,33.4299],[-117.1388,33.4326],[-117.2414,33.4319],[-117.2415,33.4488],[-117.3708,33.4907],[-117.3643,33.5049],[-117.5098,33.5052],[-117.5095,33.4703],[-117.5382,33.4549],[-117.5598,33.4514],[-117.5785,33.4538],[-117.6111,33.334],[-117.5715,33.3123],[-117.5496,33.2944],[-117.521,33.2689],[-117.5009,33.2422],[-117.4679,33.2125],[-117.4356,33.1775],[-117.3759,33.0752],[-117.3233,32.9031],[-117.3397,32.8592],[-117.342,32.8404],[-117.3303,32.8048],[-117.3209,32.6898],[-117.3092,32.6564],[-117.2769,32.6235],[-117.252,32.6149],[-117.2335,32.6167],[-117.2233,32.6212],[-117.2141,32.5948],[-117.2051,32.5295],[-116.7573,32.5655]]]},"properties":{"GEOID":"06073","NAME":"San Diego County"}}]}
