{"type":"FeatureCollection","features":[{"type":"Feature","properties":{"name":"Shelton commercial service area","coverage":["San Diego County","Temecula","Temecula Wine Country","Southern Orange County"]},"geometry":{"type":"Polygon","coordinates":[[[-116.7573,32.5655],[-116.1062,32.6184],[-116.1056,32.7263],[-116.103,32.7264],[-116.1033,33.0748],[-116.0812,33.0749],[-116.0849,33.4263],[-116.84,33.43],[-116.83,33.59],[-116.96,33.65],[-117.17,33.64],[-117.35,33.6],[-117.45,33.58],[-117.55,33.67],[-117.72,33.67],[-117.76,33.58],[-117.74,33.49],[-117.66,33.44],[-117.5785,33.4538],[-117.6111,33.334],[-117.5715,33.3123],[-117.5496,33.2944],[-117.521,33.2689],[-117.5009,33.2422],[-117.4679,33.2125],[-117.4356,33.1775],[-117.3759,33.0752],[-117.3233,32.9031],[-117.3397,32.8592],[-117.342,32.8404],[-117.3303,32.8048],[-117.3209,32.6898],[-117.3092,32.6564],[-117.2769,32.6235],[-117.252,32.6149],[-117.2335,32.6167],[-117.2233,32.6212],[-117.2141,32.5948],[-117.2051,32.5295],[-116.7573,32.5655]]]}}]}
